IRIDIUM 57              
1 25273U 98019B   24362.86886336  .00000854  00000+0  28947-3 0  9990
2 25273  86.3969 216.9710 0001924  85.4027 274.7389 14.35655249400413
IRIDIUM 63              
1 25286U 98021B   24362.81357350  .00001272  00000+0  42908-3 0  9999
2 25286  86.4006 153.9861 0002149  92.4060 267.7383 14.36273871399244
IRIDIUM 69              
1 25319U 98026A   24362.93163317  .00001251  00000+0  38652-3 0  9990
2 25319  86.4002 167.7251 0001538 172.2647 187.8576 14.40614806398407
IRIDIUM 71              
1 25320U 98026B   24362.89372105  .00001304  00000+0  40114-3 0  9999
2 25320  86.4000 162.4691 0000801   2.3612 357.7591 14.40855694398928
IRIDIUM 73              
1 25344U 98032C   24362.82216566  .00001905  00000+0  47418-3 0  9994
2 25344  86.4428 119.5997 0001759 111.1813 248.9580 14.51281109405705
IRIDIUM 82              
1 25467U 98051A   24362.58664455  .00030763  00000+0  11950-2 0  9993
2 25467  86.3729 193.3174 0103618 223.3657 135.9401 15.20979697397777
